[{"OBJECT_NAME":"COSMOS 2251 DEB","OBJECT_ID":"1993-036AP","EPOCH":"2023-09-15T08:32:28.610880","MEAN_MOTION":14.42883764,"ECCENTRICITY":0.0094174,"INCLINATION":74.0295,"RA_OF_ASC_NODE":220.0014,"ARG_OF_PERICENTER":182.9516,"MEAN_ANOMALY":330.7578,"EPHEMERIS_TYPE":0,"CLASSIFICATION_TYPE":"U","NORAD_CAT_ID":33798,"ELEMENT_SET_NO":999,"REV_AT_EPOCH":76768,"BSTAR":0.00018719,"MEAN_MOTION_DOT":6.31e-6,"MEAN_MOTION_DDOT":0},{"OBJECT_NAME":"COSMOS 2251 DEB","OBJECT_ID":"1993-036AQ","EPOCH":"2023-09-15T08:02:35.030688","MEAN_MOTION":14.52644268,"ECCENTRICITY":0.0042331,"INCLINATION":74.0407,"RA_OF_ASC_NODE":217.5298,"ARG_OF_PERICENTER":140.4897,"MEAN_ANOMALY":11.0562,"EPHEMERIS_TYPE":0,"CLASSIFICATION_TYPE":"U","NORAD_CAT_ID":33799,"ELEMENT_SET_NO":999,"REV_AT_EPOCH":76813,"BSTAR":0.0023331,"MEAN_MOTION_DOT":9.654e-5,"MEAN_MOTION_DDOT":0},{"OBJECT_NAME":"COSMOS 2251 DEB","OBJECT_ID":"1993-036AV","EPOCH":"2023-09-15T14:54:39.191616","MEAN_MOTION":15.2437659,"ECCENTRICITY":0.0022632,"INCLINATION":74.0112,"RA_OF_ASC_NODE":93.4289,"ARG_OF_PERICENTER":74.2219,"MEAN_ANOMALY":286.1474,"EPHEMERIS_TYPE":0,"CLASSIFICATION_TYPE":"U","NORAD_CAT_ID":33804,"ELEMENT_SET_NO":999,"REV_AT_EPOCH":78373,"BSTAR":0.003941,"MEAN_MOTION_DOT":0.00098513,"MEAN_MOTION_DDOT":0},{"OBJECT_NAME":"COSMOS 2251 DEB","OBJECT_ID":"1993-036AW","EPOCH":"2023-09-15T12:56:01.424832","MEAN_MOTION":14.54017809,"ECCENTRICITY":0.0064374,"INCLINATION":74.0308,"RA_OF_ASC_NODE":65.1012,"ARG_OF_PERICENTER":98.3693,"MEAN_ANOMALY":262.4774,"EPHEMERIS_TYPE":0,"CLASSIFICATION_TYPE":"U","NORAD_CAT_ID":33805,"ELEMENT_SET_NO":999,"REV_AT_EPOCH":77304,"BSTAR":0.0004219,"MEAN_MOTION_DOT":1.8e-5,"MEAN_MOTION_DDOT":0},{"OBJECT_NAME":"COSMOS 2251 DEB","OBJECT_ID":"1993-036AX","EPOCH":"2023-09-15T13:50:00.013056","MEAN_MOTION":14.91180912,"ECCENTRICITY":0.0030596,"INCLINATION":74.0756,"RA_OF_ASC_NODE":304.7116,"ARG_OF_PERICENTER":157.4343,"MEAN_ANOMALY":1.5121,"EPHEMERIS_TYPE":0,"CLASSIFICATION_TYPE":"U","NORAD_CAT_ID":33806,"ELEMENT_SET_NO":999,"REV_AT_EPOCH":77814,"BSTAR":0.0024968,"MEAN_MOTION_DOT":0.00025076,"MEAN_MOTION_DDOT":0},{"OBJECT_NAME":"COSMOS 2251 DEB","OBJECT_ID":"1993-036BC","EPOCH":"2023-09-15T09:58:21.278784","MEAN_MOTION":14.72967573,"ECCENTRICITY":0.0057088,"INCLINATION":73.8526,"RA_OF_ASC_NODE":153.5003,"ARG_OF_PERICENTER":49.7492,"MEAN_ANOMALY":68.663,"EPHEMERIS_TYPE":0,"CLASSIFICATION_TYPE":"U","NORAD_CAT_ID":33811,"ELEMENT_SET_NO":999,"REV_AT_EPOCH":77840,"BSTAR":0.0010503,"MEAN_MOTION_DOT":6.89e-5,"MEAN_MOTION_DDOT":0},{"OBJECT_NAME":"COSMOS 2251 DEB","OBJECT_ID":"1993-036BE","EPOCH":"2023-09-15T03:13:00.410592","MEAN_MOTION":14.83985032,"ECCENTRICITY":0.0075163,"INCLINATION":74.0455,"RA_OF_ASC_NODE":157.1571,"ARG_OF_PERICENTER":76.7263,"MEAN_ANOMALY":84.334,"EPHEMERIS_TYPE":0,"CLASSIFICATION_TYPE":"U","NORAD_CAT_ID":33813,"ELEMENT_SET_NO":999,"REV_AT_EPOCH":78204,"BSTAR":0.0013358,"MEAN_MOTION_DOT":0.00011674,"MEAN_MOTION_DDOT":0},{"OBJECT_NAME":"COSMOS 2251 DEB","OBJECT_ID":"1993-036BG","EPOCH":"2023-09-14T08:01:47.324064","MEAN_MOTION":14.4843292,"ECCENTRICITY":0.0047799,"INCLINATION":73.9854,"RA_OF_ASC_NODE":338.2288,"ARG_OF_PERICENTER":255.6317,"MEAN_ANOMALY":170.021,"EPHEMERIS_TYPE":0,"CLASSIFICATION_TYPE":"U","NORAD_CAT_ID":33815,"ELEMENT_SET_NO":999,"REV_AT_EPOCH":76301,"BSTAR":0.0034314,"MEAN_MOTION_DOT":0.00013043,"MEAN_MOTION_DDOT":0},{"OBJECT_NAME":"COSMOS 2251 DEB","OBJECT_ID":"1993-036BH","EPOCH":"2023-09-15T13:27:21.588192","MEAN_MOTION":13.79477226,"ECCENTRICITY":0.0272092,"INCLINATION":73.8969,"RA_OF_ASC_NODE":51.3878,"ARG_OF_PERICENTER":218.7276,"MEAN_ANOMALY":139.4064,"EPHEMERIS_TYPE":0,"CLASSIFICATION_TYPE":"U","NORAD_CAT_ID":33816,"ELEMENT_SET_NO":999,"REV_AT_EPOCH":73367,"BSTAR":0.0011236,"MEAN_MOTION_DOT":1.502e-5,"MEAN_MOTION_DDOT":0},{"OBJECT_NAME":"COSMOS 2251 DEB","OBJECT_ID":"1993-036BJ","EPOCH":"2023-09-15T16:57:14.743296","MEAN_MOTION":14.81833535,"ECCENTRICITY":0.0042949,"INCLINATION":74.0597,"RA_OF_ASC_NODE":250.498,"ARG_OF_PERICENTER":183.7654,"MEAN_ANOMALY":176.3207,"EPHEMERIS_TYPE":0,"CLASSIFICATION_TYPE":"U","NORAD_CAT_ID":33817,"ELEMENT_SET_NO":999,"REV_AT_EPOCH":77965,"BSTAR":0.0014771,"MEAN_MOTION_DOT":0.00011848,"MEAN_MOTION_DDOT":0},{"OBJECT_NAME":"COSMOS 2251 DEB","OBJECT_ID":"1993-036BK","EPOCH":"2023-09-15T09:16:35.079168","MEAN_MOTION":14.70576241,"ECCENTRICITY":0.0064069,"INCLINATION":74.0987,"RA_OF_ASC_NODE":354.2371,"ARG_OF_PERICENTER":216.4172,"MEAN_ANOMALY":213.6448,"EPHEMERIS_TYPE":0,"CLASSIFICATION_TYPE":"U","NORAD_CAT_ID":33818,"ELEMENT_SET_NO":999,"REV_AT_EPOCH":77680,"BSTAR":0.0020766,"MEAN_MOTION_DOT":0.00013018,"MEAN_MOTION_DDOT":0},{"OBJECT_NAME":"COSMOS 2251 DEB","OBJECT_ID":"1993-036BL","EPOCH":"2023-09-15T09:56:37.580640","MEAN_MOTION":14.26705962,"ECCENTRICITY":0.0097655,"INCLINATION":74.1808,"RA_OF_ASC_NODE":245.4315,"ARG_OF_PERICENTER":334.7213,"MEAN_ANOMALY":176.3425,"EPHEMERIS_TYPE":0,"CLASSIFICATION_TYPE":"U","NORAD_CAT_ID":33819,"ELEMENT_SET_NO":999,"REV_AT_EPOCH":75787,"BSTAR":0.0012508,"MEAN_MOTION_DOT":3.158e-5,"MEAN_MOTION_DDOT":0},{"OBJECT_NAME":"COSMOS 2251 DEB","OBJECT_ID":"1993-036BN","EPOCH":"2023-09-15T10:52:36.867072","MEAN_MOTION":14.9006593,"ECCENTRICITY":0.010921,"INCLINATION":74.0533,"RA_OF_ASC_NODE":20.484,"ARG_OF_PERICENTER":279.3011,"MEAN_ANOMALY":145.4864,"EPHEMERIS_TYPE":0,"CLASSIFICATION_TYPE":"U","NORAD_CAT_ID":33821,"ELEMENT_SET_NO":999,"REV_AT_EPOCH":62676,"BSTAR":0.00093816,"MEAN_MOTION_DOT":0.00010121,"MEAN_MOTION_DDOT":0},{"OBJECT_NAME":"COSMOS 2251 DEB","OBJECT_ID":"1993-036BP","EPOCH":"2023-09-15T04:33:18.984384","MEAN_MOTION":14.05027008,"ECCENTRICITY":0.0170822,"INCLINATION":74.0797,"RA_OF_ASC_NODE":190.721,"ARG_OF_PERICENTER":78.6257,"MEAN_ANOMALY":49.1,"EPHEMERIS_TYPE":0,"CLASSIFICATION_TYPE":"U","NORAD_CAT_ID":33822,"ELEMENT_SET_NO":999,"REV_AT_EPOCH":74517,"BSTAR":0.001927,"MEAN_MOTION_DOT":3.516e-5,"MEAN_MOTION_DDOT":0},{"OBJECT_NAME":"COSMOS 2251 DEB","OBJECT_ID":"1993-036BQ","EPOCH":"2023-09-15T18:05:10.683168","MEAN_MOTION":13.95584108,"ECCENTRICITY":0.0216584,"INCLINATION":73.8116,"RA_OF_ASC_NODE":140.6987,"ARG_OF_PERICENTER":46.9011,"MEAN_ANOMALY":24.0473,"EPHEMERIS_TYPE":0,"CLASSIFICATION_TYPE":"U","NORAD_CAT_ID":33823,"ELEMENT_SET_NO":999,"REV_AT_EPOCH":74177,"BSTAR":0.0010831,"MEAN_MOTION_DOT":1.769e-5,"MEAN_MOTION_DDOT":0},{"OBJECT_NAME":"COSMOS 2251 DEB","OBJECT_ID":"1993-036BR","EPOCH":"2023-09-15T13:22:58.634976","MEAN_MOTION":14.80744696,"ECCENTRICITY":0.007001,"INCLINATION":74.0139,"RA_OF_ASC_NODE":287.5608,"ARG_OF_PERICENTER":233.025,"MEAN_ANOMALY":288.3918,"EPHEMERIS_TYPE":0,"CLASSIFICATION_TYPE":"U","NORAD_CAT_ID":33824,"ELEMENT_SET_NO":999,"REV_AT_EPOCH":77743,"BSTAR":0.0018176,"MEAN_MOTION_DOT":0.00014593,"MEAN_MOTION_DDOT":0},{"OBJECT_NAME":"COSMOS 2251 DEB","OBJECT_ID":"1993-036BS","EPOCH":"2023-09-15T03:40:19.958592","MEAN_MOTION":14.53005409,"ECCENTRICITY":0.0109069,"INCLINATION":73.9938,"RA_OF_ASC_NODE":159.1304,"ARG_OF_PERICENTER":323.4026,"MEAN_ANOMALY":188.3954,"EPHEMERIS_TYPE":0,"CLASSIFICATION_TYPE":"U","NORAD_CAT_ID":33825,"ELEMENT_SET_NO":999,"REV_AT_EPOCH":76910,"BSTAR":0.0013164,"MEAN_MOTION_DOT":5.849e-5,"MEAN_MOTION_DDOT":0},{"OBJECT_NAME":"COSMOS 2251 DEB","OBJECT_ID":"1993-036BT","EPOCH":"2023-09-15T14:03:25.445952","MEAN_MOTION":14.35215892,"ECCENTRICITY":0.0110013,"INCLINATION":74.0659,"RA_OF_ASC_NODE":128.7208,"ARG_OF_PERICENTER":23.6157,"MEAN_ANOMALY":356.6348,"EPHEMERIS_TYPE":0,"CLASSIFICATION_TYPE":"U","NORAD_CAT_ID":33826,"ELEMENT_SET_NO":999,"REV_AT_EPOCH":75953,"BSTAR":0.00065608,"MEAN_MOTION_DOT":1.984e-5,"MEAN_MOTION_DDOT":0},{"OBJECT_NAME":"COSMOS 2251 DEB","OBJECT_ID":"1993-036BV","EPOCH":"2023-09-15T12:55:37.683840","MEAN_MOTION":14.39718518,"ECCENTRICITY":0.0032005,"INCLINATION":74.0491,"RA_OF_ASC_NODE":315.8425,"ARG_OF_PERICENTER":236.4357,"MEAN_ANOMALY":240.2345,"EPHEMERIS_TYPE":0,"CLASSIFICATION_TYPE":"U","NORAD_CAT_ID":33828,"ELEMENT_SET_NO":999,"REV_AT_EPOCH":76504,"BSTAR":0.00049333,"MEAN_MOTION_DOT":1.528e-5,"MEAN_MOTION_DDOT":0},{"OBJECT_NAME":"COSMOS 2251 DEB","OBJECT_ID":"1993-036BX","EPOCH":"2023-09-15T11:11:01.104864","MEAN_MOTION":14.62413598,"ECCENTRICITY":0.0055181,"INCLINATION":74.042,"RA_OF_ASC_NODE":17.477,"ARG_OF_PERICENTER":348.2213,"MEAN_ANOMALY":80.6712,"EPHEMERIS_TYPE":0,"CLASSIFICATION_TYPE":"U","NORAD_CAT_ID":33830,"ELEMENT_SET_NO":999,"REV_AT_EPOCH":77438,"BSTAR":0.00097192,"MEAN_MOTION_DOT":4.998e-5,"MEAN_MOTION_DDOT":0},{"OBJECT_NAME":"COSMOS 2251 DEB","OBJECT_ID":"1993-036BZ","EPOCH":"2023-09-15T13:42:26.872704","MEAN_MOTION":14.45235808,"ECCENTRICITY":0.00325,"INCLINATION":74.0605,"RA_OF_ASC_NODE":313.09,"ARG_OF_PERICENTER":197.1174,"MEAN_ANOMALY":316.3123,"EPHEMERIS_TYPE":0,"CLASSIFICATION_TYPE":"U","NORAD_CAT_ID":33832,"ELEMENT_SET_NO":999,"REV_AT_EPOCH":76529,"BSTAR":0.0010297,"MEAN_MOTION_DOT":3.609e-5,"MEAN_MOTION_DDOT":0},{"OBJECT_NAME":"COSMOS 2251 DEB","OBJECT_ID":"1993-036CB","EPOCH":"2023-09-15T08:43:41.384352","MEAN_MOTION":14.82431626,"ECCENTRICITY":0.0047142,"INCLINATION":74.0676,"RA_OF_ASC_NODE":227.6407,"ARG_OF_PERICENTER":140.1459,"MEAN_ANOMALY":340.6476,"EPHEMERIS_TYPE":0,"CLASSIFICATION_TYPE":"U","NORAD_CAT_ID":33834,"ELEMENT_SET_NO":999,"REV_AT_EPOCH":78025,"BSTAR":0.0016816,"MEAN_MOTION_DOT":0.00013739,"MEAN_MOTION_DDOT":0},{"OBJECT_NAME":"COSMOS 2251 DEB","OBJECT_ID":"1993-036CC","EPOCH":"2023-09-15T13:55:17.178816","MEAN_MOTION":14.50091947,"ECCENTRICITY":0.0069018,"INCLINATION":74.0632,"RA_OF_ASC_NODE":212.4404,"ARG_OF_PERICENTER":118.2866,"MEAN_ANOMALY":359.9317,"EPHEMERIS_TYPE":0,"CLASSIFICATION_TYPE":"U","NORAD_CAT_ID":33835,"ELEMENT_SET_NO":999,"REV_AT_EPOCH":76866,"BSTAR":0.00098351,"MEAN_MOTION_DOT":3.909e-5,"MEAN_MOTION_DDOT":0}]
